H1 CPF 01  gfz 2022 03 06 13  5652 terrasarx 
H2 0702601  6201 31698    2022 03 06 12 59 42 2022 03 11 00 00 42   120 1 1  0 0 0
H9
10 0 59645  26622.000000  0    5278637.675  -2493641.894  -3665596.334
10 0 59645  26742.000000  0    4720249.957  -2435160.111  -4394909.801
10 0 59645  26862.000000  0    4081250.819  -2323845.783  -5047241.290
10 0 59645  26982.000000  0    3373748.487  -2160373.320  -5611258.338
10 0 59645  27102.000000  0    2610990.181  -1946537.761  -6077188.990
10 0 59645  27222.000000  0    1807111.194  -1685237.624  -6436980.657
10 0 59645  27342.000000  0     976871.162  -1380435.187  -6684429.573
10 0 59645  27462.000000  0     135384.411  -1037095.590  -6815276.578
10 0 59645  27582.000000  0    -702150.521   -661106.452  -6827272.128
10 0 59645  27702.000000  0   -1520718.833   -259178.902  -6720210.565
10 0 59645  27822.000000  0   -2305752.780    161269.582  -6495932.940
10 0 59645  27942.000000  0   -3043384.734    592248.130  -6158297.904
10 0 59645  28062.000000  0   -3720687.476   1025339.714  -5713123.108
10 0 59645  28182.000000  0   -4325900.725   1451860.759  -5168095.742
10 0 59645  28302.000000  0   -4848638.732   1863031.094  -4532651.746
10 0 59645  28422.000000  0   -5280075.567   2250152.636  -3817823.420
10 0 59645  28542.000000  0   -5613102.542   2604790.561  -3036056.789
10 0 59645  28662.000000  0   -5842455.995   2918954.594  -2201002.118
10 0 59645  28782.000000  0   -5964811.607   3185276.478  -1327278.703
10 0 59645  28902.000000  0   -5978841.195   3397179.317   -430217.784
10 0 59645  29022.000000  0   -5885230.256   3549033.762    474411.119
10 0 59645  29142.000000  0   -5686654.960   3636296.301   1370686.012
10 0 59645  29262.000000  0   -5387716.932   3655626.303   2242821.830
10 0 59645  29382.000000  0   -4994839.535   3604978.758   3075456.896
10 0 59645  29502.000000  0   -4516129.065   3483670.225   3853931.086
10 0 59645  29622.000000  0   -3961202.445   3292416.223   4564549.716
10 0 59645  29742.000000  0   -3340987.997   3033339.167   5194826.024
10 0 59645  29862.000000  0   -2667503.895   2709948.777   5733700.689
10 0 59645  29982.000000  0   -1953618.304   2327093.543   6171732.662
10 0 59645  30102.000000  0   -1212798.043   1890885.060   6501259.490
10 0 59645  30222.000000  0    -458850.975   1408597.460   6716523.539
10 0 59645  30342.000000  0     294331.034    888544.025   6813766.543
10 0 59645  30462.000000  0    1033027.677    339933.052   6791291.071
10 0 59645  30582.000000  0    1743938.942   -227294.619   6649488.059
10 0 59645  30702.000000  0    2414423.584   -802645.001   6390831.209
10 0 59645  30822.000000  0    3032723.921  -1375264.395   6019837.185
10 0 59645  30942.000000  0    3588174.567  -1934143.463   5542992.373
10 0 59645  31062.000000  0    4071390.339  -2468329.285   4968644.693
10 0 59645  31182.000000  0    4474429.576  -2967140.737   4306863.459
10 0 59645  31302.000000  0    4790931.014  -3420384.902   3569268.207
10 0 59645  31422.000000  0    5016221.076  -3818568.551   2768826.967
10 0 59645  31542.000000  0    5147387.890  -4153099.168   1919626.692
10 0 59645  31662.000000  0    5183318.846  -4416471.240   1036621.584
10 0 59645  31782.000000  0    5124702.511  -4602433.360    135363.888
10 0 59645  31902.000000  0    4973994.083  -4706131.787   -768277.869
10 0 59645  32022.000000  0    4735344.811  -4724225.766  -1658407.415
10 0 59645  32142.000000  0    4414497.024  -4654972.016  -2519388.879
10 0 59645  32262.000000  0    4018648.146  -4498276.390  -3336127.853
10 0 59645  32382.000000  0    3556287.426  -4255712.211  -4094339.495
10 0 59645  32502.000000  0    3037010.372  -3930504.604  -4780798.454
10 0 59645  32622.000000  0    2471314.705  -3527482.309  -5383565.435
10 0 59645  32742.000000  0    1870384.448  -3052999.237  -5892185.893
10 0 59645  32862.000000  0    1245868.251  -2514829.319  -6297860.875
10 0 59645  32982.000000  0     609653.694  -1922035.371  -6593589.709
10 0 59645  33102.000000  0     -26357.381  -1284813.252  -6774280.201
10 0 59645  33222.000000  0    -650467.294   -614316.401  -6836826.109
10 0 59645  33342.000000  0   -1251391.948     77536.251  -6780154.029
10 0 59645  33462.000000  0   -1818460.248    778267.005  -6605239.259
10 0 59645  33582.000000  0   -2341799.117   1475058.583  -6315090.634
10 0 59645  33702.000000  0   -2812501.837   2154982.718  -5914704.438
10 0 59645  33822.000000  0   -3222778.972   2805235.266  -5410988.278
10 0 59645  33942.000000  0   -3566089.357   3413375.730  -4812653.863
10 0 59645  34062.000000  0   -3837249.224   3967566.152  -4130077.418
10 0 59645  34182.000000  0   -4032515.012   4456804.349  -3375128.725
10 0 59645  34302.000000  0   -4149637.757   4871146.626  -2560972.625
10 0 59645  34422.000000  0   -4187890.136   5201915.468  -1701844.853
10 0 59645  34542.000000  0   -4148064.143   5441887.360   -812804.869
10 0 59645  34662.000000  0   -4032437.575   5585456.008     90531.871
10 0 59645  34782.000000  0   -3844709.470   5628762.959    992274.456
10 0 59645  34902.000000  0   -3589906.959   5569795.731   1876544.525
10 0 59645  35022.000000  0   -3274264.547   5408448.166   2727766.760
10 0 59645  35142.000000  0   -2905077.503   5146540.054   3530952.038
10 0 59645  35262.000000  0   -2490536.319   4787798.436   4271966.471
10 0 59645  35382.000000  0   -2039545.778   4337801.413   4937783.515
10 0 59645  35502.000000  0   -1561533.449   3803885.130   5516713.777
10 0 59645  35622.000000  0   -1066251.217   3195016.354   5998608.227
10 0 59645  35742.000000  0    -563575.553   2521634.185   6375030.919
10 0 59645  35862.000000  0     -63311.086   1795465.285   6639399.879
10 0 59645  35982.000000  0     424999.734   1029316.586   6787096.878
10 0 59645  36102.000000  0     892258.099    236847.195   6815542.629
10 0 59645  36222.000000  0    1329977.201   -567674.201   6724238.750
10 0 59645  36342.000000  0    1730435.720  -1369625.696   6514776.994
10 0 59645  36462.000000  0    2086814.129  -2154297.143   6190813.305
10 0 59645  36582.000000  0    2393311.828  -2907160.361   5758008.999
10 0 59645  36702.000000  0    2645243.410  -3614140.234   5223937.203
10 0 59645  36822.000000  0    2839111.405  -4261881.071   4597955.764
10 0 59645  36942.000000  0    2972655.491  -4838004.387   3891049.146
10 0 59645  37062.000000  0    3044876.585  -5331352.474   3115638.330
10 0 59645  37182.000000  0    3056034.726  -5732212.251   2285363.545
10 0 59645  37302.000000  0    3007620.043  -6032513.852   1414841.435
10 0 59645  37422.000000  0    2902297.740  -6225997.761    519403.151
10 0 59645  37542.000000  0    2743830.095  -6308348.346   -385181.588
10 0 59645  37662.000000  0    2536974.739  -6277290.211  -1282991.730
10 0 59645  37782.000000  0    2287361.907  -6132640.612  -2158244.819
10 0 59645  37902.000000  0    2001355.497  -5876321.295  -2995581.329
10 0 59645  38022.000000  0    1685899.041  -5512327.482  -3780340.996
10 0 59645  38142.000000  0    1348353.195  -5046653.717  -4498819.937
10 0 59645  38262.000000  0     996330.414  -4487183.058  -5138506.784
10 0 59645  38382.000000  0     637528.408  -3843542.669  -5688294.008
10 0 59645  38502.000000  0     279566.524  -3126928.531  -6138661.864
10 0 59645  38622.000000  0     -70171.378  -2349903.713  -6481831.987
10 0 59645  38742.000000  0    -404684.538  -1526174.859  -6711890.244
10 0 59645  38862.000000  0    -717490.683   -670350.955  -6824878.682
10 0 59645  38982.000000  0   -1002747.159    202312.713  -6818856.401
10 0 59645  39102.000000  0   -1255356.947   1076180.419  -6693927.994
10 0 59645  39222.000000  0   -1471057.591   1935508.846  -6452241.797
10 0 59645  39342.000000  0   -1646491.559   2764723.376  -6097956.956
10 0 59645  39462.000000  0   -1779258.399   3548695.746  -5637181.084
10 0 59645  39582.000000  0   -1867946.861   4273018.361  -5077875.038
10 0 59645  39702.000000  0   -1912146.958   4924271.143  -4429727.342
10 0 59645  39822.000000  0   -1912441.453   5490276.049  -3703996.350
10 0 59645  39942.000000  0   -1870375.834   5960332.356  -2913322.796
10 0 59645  40062.000000  0   -1788407.403   6325428.673  -2071516.258
10 0 59645  40182.000000  0   -1669835.148   6578427.527  -1193316.518
10 0 59645  40302.000000  0   -1518710.750   6714215.019   -294134.346
10 0 59645  40422.000000  0   -1339733.123   6729814.021    610222.315
10 0 59645  40542.000000  0   -1138128.374   6624456.594   1503835.303
10 0 59645  40662.000000  0    -919518.645   6399607.836   2370967.898
10 0 59645  40782.000000  0    -689782.786   6058943.747   3196349.920
10 0 59645  40902.000000  0    -454913.349   5608286.641   3965452.462
10 0 59645  41022.000000  0    -220873.836   5055499.915   4664748.501
10 0 59645  41142.000000  0       6541.821   4410339.392   5281955.702
10 0 59645  41262.000000  0     221844.036   3684269.662   5806247.381
10 0 59645  41382.000000  0     419971.486   2890253.488   6228439.596
10 0 59645  41502.000000  0     596403.003   2042512.045   6541146.652
10 0 59645  41622.000000  0     747255.265   1156265.556   6738904.156
10 0 59645  41742.000000  0     869364.338    247456.974   6818258.572
10 0 59645  41862.000000  0     960349.826   -667534.064   6777823.300
10 0 59645  41982.000000  0    1018660.527  -1572185.817   6618302.736
10 0 59645  42102.000000  0    1043600.960  -2450132.471   6342481.059
10 0 59645  42222.000000  0    1035338.354  -3285461.060   5955177.296
10 0 59645  42342.000000  0     994889.119  -4063002.314   5463164.566
10 0 59645  42462.000000  0     924086.952  -4768608.116   4875056.557
10 0 59645  42582.000000  0     825532.579  -5389414.088   4201163.845
10 0 59645  42702.000000  0     702525.388  -5914083.737   3453318.547
10 0 59645  42822.000000  0     558978.207  -6333026.038   2644668.223
10 0 59645  42942.000000  0     399316.802  -6638580.593   1789443.662
10 0 59645  43062.000000  0     228366.713  -6825166.273    902705.479
99
